{
  "norad_id": 68559,
  "name": "STARLINK-37294",
  "history": [
    {
      "epoch": "2026-04-09T20:00:01.999008Z",
      "apogee_km": 272.4351656780027,
      "perigee_km": 271.48553177660506,
      "latitude_deg": -28.358139757655007,
      "longitude_deg": 66.98735593331556,
      "height_km": 280.46107822046963,
      "semi_major_axis_km": 6650.097348727304,
      "eccentricity": 7.14e-05,
      "inclination_deg": 53.1587,
      "raan_deg": 228.7812,
      "arg_perigee_deg": 51.7827,
      "mean_anomaly_deg": 272.1057,
      "mean_motion_rev_day": 16.00887294
    },
    {
      "epoch": "2026-04-10T12:00:02.000160Z",
      "apogee_km": 276.2945535381332,
      "perigee_km": 275.24589775937056,
      "latitude_deg": -21.259825163594844,
      "longitude_deg": 43.4503702163796,
      "height_km": 282.11960765086377,
      "semi_major_axis_km": 6653.907225648752,
      "eccentricity": 7.88e-05,
      "inclination_deg": 53.1588,
      "raan_deg": 225.3427,
      "arg_perigee_deg": 72.7857,
      "mean_anomaly_deg": 133.8989,
      "mean_motion_rev_day": 15.99512543
    },
    {
      "epoch": "2026-04-11T20:00:01.000224Z",
      "apogee_km": 284.420192225316,
      "perigee_km": 283.2423562344311,
      "latitude_deg": -29.88067737539085,
      "longitude_deg": 53.09476072939996,
      "height_km": 292.830621404391,
      "semi_major_axis_km": 6661.968274229873,
      "eccentricity": 8.84e-05,
      "inclination_deg": 53.1577,
      "raan_deg": 218.4908,
      "arg_perigee_deg": 42.1419,
      "mean_anomaly_deg": 279.6604,
      "mean_motion_rev_day": 15.96610282
    },
    {
      "epoch": "2026-04-13T06:00:02.000160Z",
      "apogee_km": 294.0036681269594,
      "perigee_km": 292.8650977547459,
      "latitude_deg": -0.7180641851720646,
      "longitude_deg": 100.32133541909643,
      "height_km": 294.5138762757873,
      "semi_major_axis_km": 6671.571382940852,
      "eccentricity": 8.533e-05,
      "inclination_deg": 53.159,
      "raan_deg": 211.2382,
      "arg_perigee_deg": 84.7799,
      "mean_anomaly_deg": 95.9992,
      "mean_motion_rev_day": 15.93164264
    },
    {
      "epoch": "2026-04-14T20:00:01.999008Z",
      "apogee_km": 305.5785890890247,
      "perigee_km": 304.2058948827207,
      "latitude_deg": -51.026169144099015,
      "longitude_deg": -52.77119982879811,
      "height_km": 323.2069754562691,
      "semi_major_axis_km": 6683.029241985872,
      "eccentricity": 0.0001027,
      "inclination_deg": 53.158,
      "raan_deg": 203.1865,
      "arg_perigee_deg": 73.0768,
      "mean_anomaly_deg": 182.6465,
      "mean_motion_rev_day": 15.8906887
    },
    {
      "epoch": "2026-04-15T20:00:01.999008Z",
      "apogee_km": 313.31654632062055,
      "perigee_km": 311.9890936203392,
      "latitude_deg": -27.29444289963595,
      "longitude_deg": -103.26500031292152,
      "height_km": 321.3299111068265,
      "semi_major_axis_km": 6690.78981997048,
      "eccentricity": 9.92e-05,
      "inclination_deg": 53.1586,
      "raan_deg": 198.1247,
      "arg_perigee_deg": 67.3463,
      "mean_anomaly_deg": 147.3269,
      "mean_motion_rev_day": 15.86304955
    },
    {
      "epoch": "2026-04-16T20:00:01.999008Z",
      "apogee_km": 321.3870278720851,
      "perigee_km": 320.1329943516039,
      "latitude_deg": 13.094291831874509,
      "longitude_deg": -141.87921592895586,
      "height_km": 320.9498574180358,
      "semi_major_axis_km": 6698.897011111844,
      "eccentricity": 9.36e-05,
      "inclination_deg": 53.1587,
      "raan_deg": 193.0835,
      "arg_perigee_deg": 70.7313,
      "mean_anomaly_deg": 92.8155,
      "mean_motion_rev_day": 15.83426141
    },
    {
      "epoch": "2026-04-17T22:00:01.999584Z",
      "apogee_km": 328.6754132064252,
      "perigee_km": 327.1601130721465,
      "latitude_deg": -28.56646072841508,
      "longitude_deg": -144.47539099212747,
      "height_km": 336.9544838347902,
      "semi_major_axis_km": 6706.054763139286,
      "eccentricity": 0.00011298,
      "inclination_deg": 53.1589,
      "raan_deg": 187.6461,
      "arg_perigee_deg": 90.8041,
      "mean_anomaly_deg": 125.5913,
      "mean_motion_rev_day": 15.80891697
    },
    {
      "epoch": "2026-04-18T20:00:01.000224Z",
      "apogee_km": 328.8858761692745,
      "perigee_km": 326.9263703686547,
      "latitude_deg": 28.38665729760073,
      "longitude_deg": 59.842604208246854,
      "height_km": 328.63252606123416,
      "semi_major_axis_km": 6706.043123268964,
      "eccentricity": 0.0001461,
      "inclination_deg": 53.1584,
      "raan_deg": 183.0527,
      "arg_perigee_deg": 78.6321,
      "mean_anomaly_deg": 317.705,
      "mean_motion_rev_day": 15.80895813
    },
    {
      "epoch": "2026-04-19T20:00:01.999008Z",
      "apogee_km": 329.027002975462,
      "perigee_km": 326.6168813316526,
      "latitude_deg": -23.248298793595968,
      "longitude_deg": 11.433747255065608,
      "height_km": 334.98040362669104,
      "semi_major_axis_km": 6705.9589421535575,
      "eccentricity": 0.0001797,
      "inclination_deg": 53.1578,
      "raan_deg": 178.0411,
      "arg_perigee_deg": 85.1692,
      "mean_anomaly_deg": 245.5563,
      "mean_motion_rev_day": 15.80925581
    },
    {
      "epoch": "2026-04-20T14:00:03.000384Z",
      "apogee_km": 329.09469876411003,
      "perigee_km": 326.80457017843764,
      "latitude_deg": -51.781084582011744,
      "longitude_deg": 44.493387839689966,
      "height_km": 346.959955230481,
      "semi_major_axis_km": 6706.086634471273,
      "eccentricity": 0.00017075,
      "inclination_deg": 53.158,
      "raan_deg": 174.2836,
      "arg_perigee_deg": 82.6182,
      "mean_anomaly_deg": 199.0131,
      "mean_motion_rev_day": 15.80880427
    },
    {
      "epoch": "2026-04-21T00:00:02.000160Z",
      "apogee_km": 328.91785658196204,
      "perigee_km": 327.0673671768609,
      "latitude_deg": 35.04091865333672,
      "longitude_deg": 111.60511383332383,
      "height_km": 329.93738154214265,
      "semi_major_axis_km": 6706.129611879412,
      "eccentricity": 0.00013797,
      "inclination_deg": 53.158,
      "raan_deg": 172.1931,
      "arg_perigee_deg": 88.0052,
      "mean_anomaly_deg": 46.3094,
      "mean_motion_rev_day": 15.8086523
    },
    {
      "epoch": "2026-04-22T11:50:58.679808Z",
      "apogee_km": 328.3554926959023,
      "perigee_km": 327.39116841036775,
      "latitude_deg": -2.7802430292005974e-05,
      "longitude_deg": 136.40875873192064,
      "height_km": 328.6314538380172,
      "semi_major_axis_km": 6706.010330553135,
      "eccentricity": 7.19e-05,
      "inclination_deg": 53.1577,
      "raan_deg": 164.7078,
      "arg_perigee_deg": 70.5979,
      "mean_anomaly_deg": 289.5121,
      "mean_motion_rev_day": 15.80907409
    },
    {
      "epoch": "2026-04-24T13:55:09.178176Z",
      "apogee_km": 328.04933303074813,
      "perigee_km": 327.42018814216954,
      "latitude_deg": -2.401278353094155e-05,
      "longitude_deg": 92.85253012351377,
      "height_km": 328.56568670334565,
      "semi_major_axis_km": 6705.871760586459,
      "eccentricity": 4.691e-05,
      "inclination_deg": 53.1577,
      "raan_deg": 154.2516,
      "arg_perigee_deg": 73.8165,
      "mean_anomaly_deg": 286.2909,
      "mean_motion_rev_day": 15.80956411
    },
    {
      "epoch": "2026-04-25T14:11:43.469376Z",
      "apogee_km": 328.27179819682897,
      "perigee_km": 326.84133964470766,
      "latitude_deg": -3.7397550249314936e-07,
      "longitude_deg": 82.6447795430451,
      "height_km": 328.0666869603756,
      "semi_major_axis_km": 6705.6935689207685,
      "eccentricity": 0.00010666,
      "inclination_deg": 53.158,
      "raan_deg": 149.1837,
      "arg_perigee_deg": 55.2189,
      "mean_anomaly_deg": 304.8934,
      "mean_motion_rev_day": 15.81019428
    },
    {
      "epoch": "2026-04-27T13:12:45.613152Z",
      "apogee_km": 330.20849542418273,
      "perigee_km": 324.5526595682668,
      "latitude_deg": 3.367353573648914e-05,
      "longitude_deg": 85.6272431498838,
      "height_km": 325.47441355197765,
      "semi_major_axis_km": 6705.5175774962245,
      "eccentricity": 0.00042173,
      "inclination_deg": 53.1569,
      "raan_deg": 139.356,
      "arg_perigee_deg": 2.5589,
      "mean_anomaly_deg": 357.5455,
      "mean_motion_rev_day": 15.81081671
    }
  ]
}